[{"OBJECT_NAME":"ONEWEB-0181","OBJECT_ID":"2021-031W","EPOCH":"2025-08-28T19:15:47.880864","MEAN_MOTION":13.14501242,"ECCENTRICITY":0.00016194,"INCLINATION":87.9085,"RA_OF_ASC_NODE":347.9536,"ARG_OF_PERICENTER":104.1368,"MEAN_ANOMALY":255.9942,"EPHEMERIS_TYPE":0,"CLASSIFICATION_TYPE":"U","NORAD_CAT_ID":48230,"ELEMENT_SET_NO":999,"REV_AT_EPOCH":20982,"BSTAR":-0.00021475482,"MEAN_MOTION_DOT":-6.7e-7,"MEAN_MOTION_DDOT":0},{"OBJECT_NAME":"ONEWEB-0188","OBJECT_ID":"2021-031X","EPOCH":"2025-08-28T20:10:37.106400","MEAN_MOTION":13.14501811,"ECCENTRICITY":0.00018843,"INCLINATION":87.9101,"RA_OF_ASC_NODE":347.9365,"ARG_OF_PERICENTER":103.5592,"MEAN_ANOMALY":256.5748,"EPHEMERIS_TYPE":0,"CLASSIFICATION_TYPE":"U","NORAD_CAT_ID":48231,"ELEMENT_SET_NO":999,"REV_AT_EPOCH":20973,"BSTAR":7.1245984e-5,"MEAN_MOTION_DOT":3.9e-7,"MEAN_MOTION_DDOT":0},{"OBJECT_NAME":"ONEWEB-0220","OBJECT_ID":"2021-031Y","EPOCH":"2025-08-28T19:18:05.551488","MEAN_MOTION":13.14501822,"ECCENTRICITY":0.00018793,"INCLINATION":87.909,"RA_OF_ASC_NODE":347.8832,"ARG_OF_PERICENTER":108.0783,"MEAN_ANOMALY":252.0552,"EPHEMERIS_TYPE":0,"CLASSIFICATION_TYPE":"U","NORAD_CAT_ID":48232,"ELEMENT_SET_NO":999,"REV_AT_EPOCH":20999,"BSTAR":-0.00013263083,"MEAN_MOTION_DOT":-3.6e-7,"MEAN_MOTION_DDOT":0},{"OBJECT_NAME":"ONEWEB-0165","OBJECT_ID":"2021-031Z","EPOCH":"2025-08-28T19:59:12.196320","MEAN_MOTION":13.14501606,"ECCENTRICITY":0.00017594,"INCLINATION":87.9084,"RA_OF_ASC_NODE":347.9202,"ARG_OF_PERICENTER":107.571,"MEAN_ANOMALY":252.5612,"EPHEMERIS_TYPE":0,"CLASSIFICATION_TYPE":"U","NORAD_CAT_ID":48233,"ELEMENT_SET_NO":999,"REV_AT_EPOCH":20995,"BSTAR":0.00044280362,"MEAN_MOTION_DOT":1.77e-6,"MEAN_MOTION_DDOT":0},{"OBJECT_NAME":"ONEWEB-0199","OBJECT_ID":"2021-031AA","EPOCH":"2025-08-28T17:46:45.840576","MEAN_MOTION":13.14502999,"ECCENTRICITY":0.00018518,"INCLINATION":87.9086,"RA_OF_ASC_NODE":347.9034,"ARG_OF_PERICENTER":96.1618,"MEAN_ANOMALY":263.9722,"EPHEMERIS_TYPE":0,"CLASSIFICATION_TYPE":"U","NORAD_CAT_ID":48234,"ELEMENT_SET_NO":999,"REV_AT_EPOCH":20984,"BSTAR":0.00047783692,"MEAN_MOTION_DOT":1.9e-6,"MEAN_MOTION_DDOT":0},{"OBJECT_NAME":"ONEWEB-0203","OBJECT_ID":"2021-031AB","EPOCH":"2025-08-28T19:22:40.074528","MEAN_MOTION":13.14503972,"ECCENTRICITY":0.00016022,"INCLINATION":87.9082,"RA_OF_ASC_NODE":347.8916,"ARG_OF_PERICENTER":95.2748,"MEAN_ANOMALY":264.8565,"EPHEMERIS_TYPE":0,"CLASSIFICATION_TYPE":"U","NORAD_CAT_ID":48235,"ELEMENT_SET_NO":999,"REV_AT_EPOCH":20986,"BSTAR":-1.3047847e-5,"MEAN_MOTION_DOT":8.0e-8,"MEAN_MOTION_DDOT":0},{"OBJECT_NAME":"ONEWEB-0197","OBJECT_ID":"2021-031AC","EPOCH":"2025-08-28T20:36:52.188768","MEAN_MOTION":13.1450404,"ECCENTRICITY":0.00021748,"INCLINATION":87.9082,"RA_OF_ASC_NODE":347.8803,"ARG_OF_PERICENTER":102.6661,"MEAN_ANOMALY":257.4712,"EPHEMERIS_TYPE":0,"CLASSIFICATION_TYPE":"U","NORAD_CAT_ID":48236,"ELEMENT_SET_NO":999,"REV_AT_EPOCH":20978,"BSTAR":-0.00064607709,"MEAN_MOTION_DOT":-2.27e-6,"MEAN_MOTION_DDOT":0},{"OBJECT_NAME":"ONEWEB-0194","OBJECT_ID":"2021-031AD","EPOCH":"2025-08-28T20:06:03.273696","MEAN_MOTION":13.14502415,"ECCENTRICITY":0.00017829,"INCLINATION":87.9098,"RA_OF_ASC_NODE":347.8972,"ARG_OF_PERICENTER":91.5579,"MEAN_ANOMALY":268.5755,"EPHEMERIS_TYPE":0,"CLASSIFICATION_TYPE":"U","NORAD_CAT_ID":48237,"ELEMENT_SET_NO":999,"REV_AT_EPOCH":20995,"BSTAR":0.00041886682,"MEAN_MOTION_DOT":1.68e-6,"MEAN_MOTION_DDOT":0},{"OBJECT_NAME":"ONEWEB-0193","OBJECT_ID":"2021-031AE","EPOCH":"2025-08-28T20:28:54.041664","MEAN_MOTION":13.14501189,"ECCENTRICITY":0.00019748,"INCLINATION":87.9094,"RA_OF_ASC_NODE":347.8971,"ARG_OF_PERICENTER":77.426,"MEAN_ANOMALY":282.7091,"EPHEMERIS_TYPE":0,"CLASSIFICATION_TYPE":"U","NORAD_CAT_ID":48238,"ELEMENT_SET_NO":999,"REV_AT_EPOCH":20990,"BSTAR":0.00017832906,"MEAN_MOTION_DOT":7.9e-7,"MEAN_MOTION_DDOT":0},{"OBJECT_NAME":"ONEWEB-0191","OBJECT_ID":"2021-031AF","EPOCH":"2025-08-28T18:55:16.290336","MEAN_MOTION":13.14503392,"ECCENTRICITY":0.00018785,"INCLINATION":87.9096,"RA_OF_ASC_NODE":347.8851,"ARG_OF_PERICENTER":98.2598,"MEAN_ANOMALY":261.8745,"EPHEMERIS_TYPE":0,"CLASSIFICATION_TYPE":"U","NORAD_CAT_ID":48239,"ELEMENT_SET_NO":999,"REV_AT_EPOCH":20975,"BSTAR":-0.00048792286,"MEAN_MOTION_DOT":-1.68e-6,"MEAN_MOTION_DDOT":0},{"OBJECT_NAME":"ONEWEB-0195","OBJECT_ID":"2021-031AG","EPOCH":"2025-08-28T20:11:45.343392","MEAN_MOTION":13.14503643,"ECCENTRICITY":0.00014915,"INCLINATION":87.9094,"RA_OF_ASC_NODE":347.8717,"ARG_OF_PERICENTER":109.2312,"MEAN_ANOMALY":250.8979,"EPHEMERIS_TYPE":0,"CLASSIFICATION_TYPE":"U","NORAD_CAT_ID":48240,"ELEMENT_SET_NO":999,"REV_AT_EPOCH":20974,"BSTAR":0.00023990715,"MEAN_MOTION_DOT":1.02e-6,"MEAN_MOTION_DDOT":0},{"OBJECT_NAME":"ONEWEB-0201","OBJECT_ID":"2021-031AH","EPOCH":"2025-08-28T18:05:13.583616","MEAN_MOTION":13.1450391,"ECCENTRICITY":0.00019262,"INCLINATION":87.91,"RA_OF_ASC_NODE":347.9383,"ARG_OF_PERICENTER":109.3756,"MEAN_ANOMALY":250.7582,"EPHEMERIS_TYPE":0,"CLASSIFICATION_TYPE":"U","NORAD_CAT_ID":48241,"ELEMENT_SET_NO":999,"REV_AT_EPOCH":20996,"BSTAR":0.00060997187,"MEAN_MOTION_DOT":2.39e-6,"MEAN_MOTION_DDOT":0},{"OBJECT_NAME":"ONEWEB-0207","OBJECT_ID":"2021-031AJ","EPOCH":"2025-08-28T19:26:04.263648","MEAN_MOTION":13.1450483,"ECCENTRICITY":0.00019843,"INCLINATION":87.9096,"RA_OF_ASC_NODE":347.8863,"ARG_OF_PERICENTER":105.3686,"MEAN_ANOMALY":254.7663,"EPHEMERIS_TYPE":0,"CLASSIFICATION_TYPE":"U","NORAD_CAT_ID":48242,"ELEMENT_SET_NO":999,"REV_AT_EPOCH":20988,"BSTAR":0.00010885353,"MEAN_MOTION_DOT":5.3e-7,"MEAN_MOTION_DDOT":0},{"OBJECT_NAME":"ONEWEB-0208","OBJECT_ID":"2021-031AK","EPOCH":"2025-08-28T18:59:49.623648","MEAN_MOTION":13.14503331,"ECCENTRICITY":0.00016584,"INCLINATION":87.9091,"RA_OF_ASC_NODE":347.9042,"ARG_OF_PERICENTER":103.7717,"MEAN_ANOMALY":256.3597,"EPHEMERIS_TYPE":0,"CLASSIFICATION_TYPE":"U","NORAD_CAT_ID":48243,"ELEMENT_SET_NO":999,"REV_AT_EPOCH":20989,"BSTAR":-0.00069048385,"MEAN_MOTION_DOT":-2.43e-6,"MEAN_MOTION_DDOT":0},{"OBJECT_NAME":"ONEWEB-0200","OBJECT_ID":"2021-031AL","EPOCH":"2025-08-28T19:56:55.601376","MEAN_MOTION":13.14502083,"ECCENTRICITY":0.00017288,"INCLINATION":87.9088,"RA_OF_ASC_NODE":347.8874,"ARG_OF_PERICENTER":101.4456,"MEAN_ANOMALY":258.6868,"EPHEMERIS_TYPE":0,"CLASSIFICATION_TYPE":"U","NORAD_CAT_ID":48244,"ELEMENT_SET_NO":999,"REV_AT_EPOCH":20982,"BSTAR":0.00050781365,"MEAN_MOTION_DOT":2.01e-6,"MEAN_MOTION_DDOT":0},{"OBJECT_NAME":"ONEWEB-0217","OBJECT_ID":"2021-031AM","EPOCH":"2025-08-28T20:19:44.372640","MEAN_MOTION":13.14503505,"ECCENTRICITY":0.00015238,"INCLINATION":87.9096,"RA_OF_ASC_NODE":347.8694,"ARG_OF_PERICENTER":104.1844,"MEAN_ANOMALY":255.9455,"EPHEMERIS_TYPE":0,"CLASSIFICATION_TYPE":"U","NORAD_CAT_ID":48245,"ELEMENT_SET_NO":999,"REV_AT_EPOCH":20977,"BSTAR":-0.00010226545,"MEAN_MOTION_DOT":-2.5e-7,"MEAN_MOTION_DDOT":0}]
