ONEWEB-0181             
1 48230U 21031W   25240.80263751 -.00000067  00000+0 -21475-3 0  9995
2 48230  87.9085 347.9536 0001619 104.1368 255.9942 13.14501242209823
ONEWEB-0188             
1 48231U 21031X   25240.84070725  .00000039  00000+0  71246-4 0  9996
2 48231  87.9101 347.9365 0001884 103.5592 256.5748 13.14501811209732
ONEWEB-0220             
1 48232U 21031Y   25240.80423092 -.00000036  00000+0 -13263-3 0  9995
2 48232  87.9090 347.8832 0001879 108.0783 252.0552 13.14501822209998
ONEWEB-0165             
1 48233U 21031Z   25240.83278005  .00000177  00000+0  44280-3 0  9998
2 48233  87.9084 347.9202 0001759 107.5710 252.5612 13.14501606209953
ONEWEB-0199             
1 48234U 21031AA  25240.74080834  .00000190  00000+0  47784-3 0  9997
2 48234  87.9086 347.9034 0001851  96.1618 263.9722 13.14502999209844
ONEWEB-0203             
1 48235U 21031AB  25240.80740827  .00000008  00000+0 -13048-4 0  9996
2 48235  87.9082 347.8916 0001602  95.2748 264.8565 13.14503972209866
ONEWEB-0197             
1 48236U 21031AC  25240.85893737 -.00000227  00000+0 -64608-3 0  9992
2 48236  87.9082 347.8803 0002174 102.6661 257.4712 13.14504040209784
ONEWEB-0194             
1 48237U 21031AD  25240.83753789  .00000168  00000+0  41887-3 0  9999
2 48237  87.9098 347.8972 0001782  91.5579 268.5755 13.14502415209950
ONEWEB-0193             
1 48238U 21031AE  25240.85340326  .00000079  00000+0  17833-3 0  9996
2 48238  87.9094 347.8971 0001974  77.4260 282.7091 13.14501189209902
ONEWEB-0191             
1 48239U 21031AF  25240.78838299 -.00000168  00000+0 -48792-3 0  9999
2 48239  87.9096 347.8851 0001878  98.2598 261.8745 13.14503392209755
ONEWEB-0195             
1 48240U 21031AG  25240.84149703  .00000102  00000+0  23991-3 0  9993
2 48240  87.9094 347.8717 0001491 109.2312 250.8979 13.14503643209749
ONEWEB-0201             
1 48241U 21031AH  25240.75362944  .00000239  00000+0  60997-3 0  9996
2 48241  87.9100 347.9383 0001926 109.3756 250.7582 13.14503910209964
ONEWEB-0207             
1 48242U 21031AJ  25240.80977157  .00000053  00000+0  10885-3 0  9996
2 48242  87.9096 347.8863 0001984 105.3686 254.7663 13.14504830209880
ONEWEB-0208             
1 48243U 21031AK  25240.79154657 -.00000243  00000+0 -69048-3 0  9995
2 48243  87.9091 347.9042 0001658 103.7717 256.3597 13.14503331209891
ONEWEB-0200             
1 48244U 21031AL  25240.83119909  .00000201  00000+0  50781-3 0  9998
2 48244  87.9088 347.8874 0001728 101.4456 258.6868 13.14502083209825
ONEWEB-0217             
1 48245U 21031AM  25240.84704135 -.00000025  00000+0 -10227-3 0  9998
2 48245  87.9096 347.8694 0001523 104.1844 255.9455 13.14503505209775
